ICEYE-X9                
1 47506U 21006CX  23362.46418627  .00027778  00000+0  10076-2 0  9991
2 47506  97.3622  54.3082 0008413 126.8860 233.3152 15.28271202162044
XR-1 (ICEYE-X10)        
1 47507U 21006CY  23362.16767733  .00014253  00000+0  62135-3 0  9992
2 47507  97.3689  55.9320 0013920 134.3470 225.8910 15.22197725162106
ICEYE-X8                
1 47510U 21006DB  23362.44055469  .00016357  00000+0  62244-3 0  9991
2 47510  97.3641  54.4014 0007492 124.0674 236.1278 15.26805421162072
ICEYE-X12               
1 48914U 21059AM  23362.42981525  .00016602  00000+0  78320-3 0  9992
2 48914  97.6141 134.5462 0001769 318.3531  41.7569 15.19543383138486
ICEYE-X13               
1 48916U 21059AP  23362.47948036  .00015164  00000+0  73797-3 0  9994
2 48916  97.6161 135.3491 0006345   6.2034 353.9277 15.18467295138533
ICEYE-X15               
1 48917U 21059AQ  23362.43992060  .00023377  00000+0  79595-3 0  9994
2 48917  97.6127 142.3594 0010194 272.1280  87.8793 15.30363767138991
ICEYE-X16               
1 51008U 22002AA  23362.42856112  .00031313  00000+0  95380-3 0  9993
2 51008  97.4149  68.7598 0005633 271.0358  89.0239 15.33910810108401
ICEYE-X14               
1 51070U 22002CQ  23362.42420712  .00012945  00000+0  61029-3 0  9998
2 51070  97.4180  67.3206 0006515  19.2413 340.9067 15.19599986108308
CARCARA 1 (ICEYE-X18)   
1 52749U 22057T   23362.46647419  .00023333  00000+0  10144-2 0  9995
2 52749  97.5512 118.1578 0015759  31.6119 328.6060 15.22164983 88144
ICEYE-X24               
1 52755U 22057Z   23362.42119051  .00027644  00000+0  10204-2 0  9990
2 52755  97.5567 121.2112 0003109 212.0851 148.0199 15.27727758 88321
CARCARA 2 (ICEYE-X19)   
1 52758U 22057AC  23362.47839577  .00023367  00000+0  97146-3 0  9999
2 52758  97.5536 118.8008 0016139  18.7620 341.4208 15.23675220 88173
ICEYE-X20               
1 52759U 22057AD  23362.43720828  .00028237  00000+0  93185-3 0  9994
2 52759  97.5547 121.6431 0009251  23.0489 337.1165 15.31342668 88357
ICEYE-X17               
1 52762U 22057AG  23362.38078704  .00012900  00000+0  57881-3 0  9994
2 52762  97.5558 120.8021 0013644   1.6767 358.4512 15.21246070 88295
ICEYE-X27               
1 55062U 23001BF  23362.13162580  .00013326  00000+0  58627-3 0  9991
2 55062  97.4564  59.6015 0013054  58.5293 301.7217 15.21915655 54512
