[ {"OBJECT_NAME": "ICEYE-X9", "NORAD_CAT_ID": 47506, "MEAN_MOTION": 15.28271202, "ECCENTRICITY": 0.0008413, "INCLINATION": 97.3622, "RA_OF_ASC_NODE": 54.3082, "ARG_OF_PERICENTER": 126.886, "MEAN_ANOMALY": 233.3152, "BSTAR": 0.0010076, "EPOCH": "2023-12-28T11:08:25"}, {"OBJECT_NAME": "XR-1 (ICEYE-X10)", "NORAD_CAT_ID": 47507, "MEAN_MOTION": 15.22197725, "ECCENTRICITY": 0.001392, "INCLINATION": 97.3689, "RA_OF_ASC_NODE": 55.932, "ARG_OF_PERICENTER": 134.347, "MEAN_ANOMALY": 225.891, "BSTAR": 0.00062135, "EPOCH": "2023-12-28T04:01:27"}, {"OBJECT_NAME": "ICEYE-X8", "NORAD_CAT_ID": 47510, "MEAN_MOTION": 15.26805421, "ECCENTRICITY": 0.0007492, "INCLINATION": 97.3641, "RA_OF_ASC_NODE": 54.4014, "ARG_OF_PERICENTER": 124.0674, "MEAN_ANOMALY": 236.1278, "BSTAR": 0.00062244, "EPOCH": "2023-12-28T10:34:23"}, {"OBJECT_NAME": "CARCARA 2 (ICEYE-X19)", "NORAD_CAT_ID": 52758, "MEAN_MOTION": 15.2367522, "ECCENTRICITY": 0.0016139, "INCLINATION": 97.5536, "RA_OF_ASC_NODE": 118.8008, "ARG_OF_PERICENTER": 18.762, "MEAN_ANOMALY": 341.4208, "BSTAR": 0.00097146, "EPOCH": "2023-12-28T11:28:53"}, {"OBJECT_NAME": "ICEYE-X20", "NORAD_CAT_ID": 52759, "MEAN_MOTION": 15.31342668, "ECCENTRICITY": 0.0009251, "INCLINATION": 97.5547, "RA_OF_ASC_NODE": 121.6431, "ARG_OF_PERICENTER": 23.0489, "MEAN_ANOMALY": 337.1165, "BSTAR": 0.00093185, "EPOCH": "2023-12-28T10:29:34"}, {"OBJECT_NAME": "ICEYE-X17", "NORAD_CAT_ID": 52762, "MEAN_MOTION": 15.2124607, "ECCENTRICITY": 0.0013644, "INCLINATION": 97.5558, "RA_OF_ASC_NODE": 120.8021, "ARG_OF_PERICENTER": 1.6767, "MEAN_ANOMALY": 358.4512, "BSTAR": 0.00057881, "EPOCH": "2023-12-28T09:08:20"}, {"OBJECT_NAME": "ICEYE-X27", "NORAD_CAT_ID": 55062, "MEAN_MOTION": 15.21915655, "ECCENTRICITY": 0.0013054, "INCLINATION": 97.4564, "RA_OF_ASC_NODE": 59.6015, "ARG_OF_PERICENTER": 58.5293, "MEAN_ANOMALY": 301.7217, "BSTAR": 0.00058627, "EPOCH": "2023-12-28T03:09:32"}, {"OBJECT_NAME": "ICEYE-X12", "NORAD_CAT_ID": 48914, "MEAN_MOTION": 15.19543383, "ECCENTRICITY": 0.0001769, "INCLINATION": 97.6141, "RA_OF_ASC_NODE": 134.5462, "ARG_OF_PERICENTER": 318.3531, "MEAN_ANOMALY": 41.7569, "BSTAR": 0.0007832000000000001, "EPOCH": "2023-12-28T10:18:56"}, {"OBJECT_NAME": "ICEYE-X13", "NORAD_CAT_ID": 48916, "MEAN_MOTION": 15.18467295, "ECCENTRICITY": 0.0006345, "INCLINATION": 97.6161, "RA_OF_ASC_NODE": 135.3491, "ARG_OF_PERICENTER": 6.2034, "MEAN_ANOMALY": 353.9277, "BSTAR": 0.00073797, "EPOCH": "2023-12-28T11:30:27"}, {"OBJECT_NAME": "ICEYE-X15", "NORAD_CAT_ID": 48917, "MEAN_MOTION": 15.30363767, "ECCENTRICITY": 0.0010194, "INCLINATION": 97.6127, "RA_OF_ASC_NODE": 142.3594, "ARG_OF_PERICENTER": 272.128, "MEAN_ANOMALY": 87.8793, "BSTAR": 0.00079595, "EPOCH": "2023-12-28T10:33:29"}, {"OBJECT_NAME": "ICEYE-X16", "NORAD_CAT_ID": 51008, "MEAN_MOTION": 15.3391081, "ECCENTRICITY": 0.0005633, "INCLINATION": 97.4149, "RA_OF_ASC_NODE": 68.7598, "ARG_OF_PERICENTER": 271.0358, "MEAN_ANOMALY": 89.0239, "BSTAR": 0.0009538, "EPOCH": "2023-12-28T10:17:07"}, {"OBJECT_NAME": "ICEYE-X14", "NORAD_CAT_ID": 51070, "MEAN_MOTION": 15.19599986, "ECCENTRICITY": 0.0006515, "INCLINATION": 97.418, "RA_OF_ASC_NODE": 67.3206, "ARG_OF_PERICENTER": 19.2413, "MEAN_ANOMALY": 340.9067, "BSTAR": 0.00061029, "EPOCH": "2023-12-28T10:10:51"}, {"OBJECT_NAME": "CARCARA 1 (ICEYE-X18)", "NORAD_CAT_ID": 52749, "MEAN_MOTION": 15.22164983, "ECCENTRICITY": 0.0015759, "INCLINATION": 97.5512, "RA_OF_ASC_NODE": 118.1578, "ARG_OF_PERICENTER": 31.6119, "MEAN_ANOMALY": 328.606, "BSTAR": 0.0010144, "EPOCH": "2023-12-28T11:11:43"}, {"OBJECT_NAME": "ICEYE-X24", "NORAD_CAT_ID": 52755, "MEAN_MOTION": 15.27727758, "ECCENTRICITY": 0.0003109, "INCLINATION": 97.5567, "RA_OF_ASC_NODE": 121.2112, "ARG_OF_PERICENTER": 212.0851, "MEAN_ANOMALY": 148.0199, "BSTAR": 0.0010204, "EPOCH": "2023-12-28T10:06:30"}]